OBJECT_NAME,OBJECT_ID,EPOCH,MEAN_MOTION,ECCENTRICITY,INCLINATION,RA_OF_ASC_NODE,ARG_OF_PERICENTER,MEAN_ANOMALY,EPHEMERIS_TYPE,CLASSIFICATION_TYPE,NORAD_CAT_ID,ELEMENT_SET_NO,REV_AT_EPOCH,BSTAR,MEAN_MOTION_DOT,MEAN_MOTION_DDOT
ONEWEB-0473,2022-012AH,2026-06-08T04:00:41.097312,13.10375155,.00018626,87.8844,38.0735,76.9805,283.1530,0,U,51653,999,20812,-.73803846E-3,-.245E-5,0
ONEWEB-0474,2022-012AJ,2026-06-08T03:48:43.129728,13.10373831,.00017371,87.8852,38.0586,71.2331,288.8985,0,U,51654,999,20811,-.14113063E-2,-.48E-5,0
ONEWEB-0475,2022-012AK,2026-06-08T02:38:24.215136,13.17648189,.00017879,87.9141,7.6785,66.5746,293.5574,0,U,51655,999,21249,-.14958977E-4,.7E-7,0
ONEWEB-0490,2022-138A,2026-06-08T02:41:49.694208,13.19724939,.00016369,87.9170,306.7746,96.9801,263.1518,0,U,54113,999,17563,.2400871E-3,.109E-5,0
ONEWEB-0492,2022-138B,2026-06-08T03:18:14.414976,13.19725040,.00017198,87.9164,306.7721,103.8750,256.2574,0,U,54114,999,17564,-.20265582E-3,-.68E-6,0
ONEWEB-0495,2022-138C,2026-06-08T02:46:22.660320,13.19724493,.0001176,87.9160,306.7786,93.3872,266.7395,0,U,54115,999,17562,.1165729E-3,.6E-6,0
ONEWEB-0497,2022-138D,2026-06-08T03:04:34.491936,13.19723623,.00017925,87.9170,306.7685,98.5331,261.6005,0,U,54116,999,17561,.30211379E-4,.25E-6,0
ONEWEB-0499,2022-138E,2026-06-08T02:40:42.494016,13.19726903,.00016086,87.9161,306.7807,91.6448,268.4869,0,U,54117,999,17562,.51686111E-4,.34E-6,0
ONEWEB-0500,2022-138F,2026-06-08T02:44:05.726688,13.19724355,.00018962,87.9169,306.7736,99.5223,260.6124,0,U,54118,999,17563,-.25191359E-4,.3E-7,0
ONEWEB-0501,2022-138G,2026-06-08T03:27:18.111168,13.19722810,.00014212,87.9175,306.7677,93.5802,266.5493,0,U,54119,999,17561,.60321071E-4,.37E-6,0
ONEWEB-0502,2022-138H,2026-06-08T03:06:49.987008,13.19722915,.00016773,87.9172,306.7594,90.8040,269.3285,0,U,54120,999,17563,-.11438036E-3,-.33E-6,0
ONEWEB-0503,2022-138J,2026-06-07T23:12:34.449696,13.19723790,.00020128,87.9173,306.7973,90.0778,270.0585,0,U,54121,999,17560,.39617746E-4,.29E-6,0
ONEWEB-0504,2022-138K,2026-06-08T02:32:44.236320,13.19724969,.00016673,87.9171,306.7745,90.4628,269.6696,0,U,54122,999,17563,-.10602418E-3,-.29E-6,0
ONEWEB-0505,2022-138L,2026-06-07T22:49:50.885760,13.19725812,.00014211,87.9171,306.8065,88.9050,271.2246,0,U,54123,999,17559,-.1334861E-3,-.4E-6,0
ONEWEB-0506,2022-138M,2026-06-08T07:19:17.823360,13.19721790,.00015682,87.9170,306.7331,94.1675,265.9637,0,U,54124,999,17563,.84358489E-3,.351E-5,0
ONEWEB-0507,2022-138N,2026-06-08T04:10:32.471616,13.19724620,.00016069,87.9161,306.7720,97.1593,262.9723,0,U,54125,999,17566,.80387529E-4,.45E-6,0
ONEWEB-0508,2022-138P,2026-06-07T22:38:26.649600,13.19723838,.00013766,87.9163,306.8174,100.3018,259.8270,0,U,54126,999,17561,-.13917954E-3,-.43E-6,0
ONEWEB-0509,2022-138Q,2026-06-08T03:29:32.775072,13.19716390,.00017824,87.9172,306.7659,129.6230,230.5060,0,U,54127,999,17561,.12546496E-2,.515E-5,0
ONEWEB-0510,2022-138R,2026-06-07T21:21:09.926208,13.20771294,.00024434,87.9191,276.2891,99.5187,260.6222,0,U,54128,999,17805,.12842592E-3,.65E-6,0
ONEWEB-0511,2022-138S,2026-06-08T03:25:03.629568,13.19725472,.00018476,87.9171,306.7698,87.5133,272.6211,0,U,54129,999,17564,.87279289E-4,.48E-6,0
ONEWEB-0512,2022-138T,2026-06-08T03:13:40.084608,13.19724589,.00015864,87.9161,306.7769,88.9442,271.1872,0,U,54130,999,17561,-.12956074E-4,.8E-7,0
ONEWEB-0513,2022-138U,2026-06-07T21:59:43.601568,13.20268139,.00015114,87.9173,306.7657,65.0832,295.0458,0,U,54131,999,17549,.8941621E-5,.17E-6,0
ONEWEB-0514,2022-138V,2026-06-08T03:36:24.808032,13.19724479,.00019898,87.9171,306.7665,96.8628,263.2731,0,U,54132,999,17563,-.38771593E-3,-.142E-5,0
ONEWEB-0515,2022-138W,2026-06-08T06:07:11.452224,13.20770311,.00025165,87.9195,276.2100,117.1647,242.9743,0,U,54133,999,17812,.16708334E-3,.81E-6,0
ONEWEB-0516,2022-138X,2026-06-08T03:00:01.033344,13.19724285,.00017582,87.9162,306.7788,100.0282,260.1049,0,U,54134,999,17563,.19859884E-3,.92E-6,0
ONEWEB-0517,2022-138Y,2026-06-07T22:52:05.742336,13.19724388,.00020371,87.9166,306.8045,89.2556,270.8810,0,U,54135,999,17561,-.23958303E-3,-.83E-6,0
ONEWEB-0518,2022-138Z,2026-06-08T02:57:47.604096,13.19726896,.00017582,87.9162,306.7811,102.5234,257.6096,0,U,54136,999,17563,.30493432E-4,.25E-6,0
ONEWEB-0519,2022-138AA,2026-06-08T03:34:09.911712,13.19725517,.00019583,87.9173,306.7663,91.7822,268.3535,0,U,54137,999,17564,.14496494E-3,.71E-6,0
ONEWEB-0520,2022-138AB,2026-06-07T22:56:39.439392,13.19724599,.00015691,87.9169,306.8047,95.6319,264.4993,0,U,54138,999,17560,-.12707687E-4,.8E-7,0
ONEWEB-0521,2022-138AC,2026-06-08T07:01:07.317120,13.19724597,.00020184,87.9173,306.7266,92.3876,267.7488,0,U,54139,999,17559,.27681142E-3,.124E-5,0
