ONEWEB-0473             
1 51653U 22012AH  26159.16714233 -.00000245  00000+0 -73804-3 0  9994
2 51653  87.8844  38.0735 0001862  76.9805 283.1530 13.10375155208125
ONEWEB-0474             
1 51654U 22012AJ  26159.15883252 -.00000480  00000+0 -14113-2 0  9990
2 51654  87.8852  38.0586 0001737  71.2331 288.8985 13.10373831208116
ONEWEB-0475             
1 51655U 22012AK  26159.11000249  .00000007  00000+0 -14959-4 0  9998
2 51655  87.9141   7.6785 0001787  66.5746 293.5574 13.17648189212495
ONEWEB-0490             
1 54113U 22138A   26159.11238072  .00000109  00000+0  24009-3 0  9994
2 54113  87.9170 306.7746 0001636  96.9801 263.1518 13.19724939175636
ONEWEB-0492             
1 54114U 22138B   26159.13766684 -.00000068  00000+0 -20266-3 0  9999
2 54114  87.9164 306.7721 0001719 103.8750 256.2574 13.19725040175646
ONEWEB-0495             
1 54115U 22138C   26159.11554005  .00000060  00000+0  11657-3 0  9994
2 54115  87.9160 306.7786 0001176  93.3872 266.7395 13.19724493175625
ONEWEB-0497             
1 54116U 22138D   26159.12817699  .00000025  00000+0  30211-4 0  9996
2 54116  87.9170 306.7685 0001792  98.5331 261.6005 13.19723623175611
ONEWEB-0499             
1 54117U 22138E   26159.11160294  .00000034  00000+0  51686-4 0  9997
2 54117  87.9161 306.7807 0001608  91.6448 268.4869 13.19726903175625
ONEWEB-0500             
1 54118U 22138F   26159.11395517  .00000003  00000+0 -25191-4 0  9995
2 54118  87.9169 306.7736 0001896  99.5223 260.6124 13.19724355175630
ONEWEB-0501             
1 54119U 22138G   26159.14395962  .00000037  00000+0  60321-4 0  9993
2 54119  87.9175 306.7677 0001421  93.5802 266.5493 13.19722810175619
ONEWEB-0502             
1 54120U 22138H   26159.12974522 -.00000033  00000+0 -11438-3 0  9990
2 54120  87.9172 306.7594 0001677  90.8040 269.3285 13.19722915175631
ONEWEB-0503             
1 54121U 22138J   26158.96706539  .00000029  00000+0  39618-4 0  9997
2 54121  87.9173 306.7973 0002012  90.0778 270.0585 13.19723790175609
ONEWEB-0504             
1 54122U 22138K   26159.10606755 -.00000029  00000+0 -10602-3 0  9997
2 54122  87.9171 306.7745 0001667  90.4628 269.6696 13.19724969175637
ONEWEB-0505             
1 54123U 22138L   26158.95128340 -.00000040  00000+0 -13349-3 0  9993
2 54123  87.9171 306.8065 0001421  88.9050 271.2246 13.19725812175596
ONEWEB-0506             
1 54124U 22138M   26159.30506740  .00000351  00000+0  84358-3 0  9999
2 54124  87.9170 306.7331 0001568  94.1675 265.9637 13.19721790175635
ONEWEB-0507             
1 54125U 22138N   26159.17398694  .00000045  00000+0  80388-4 0  9992
2 54125  87.9161 306.7720 0001606  97.1593 262.9723 13.19724620175664
ONEWEB-0508             
1 54126U 22138P   26158.94336400 -.00000043  00000+0 -13918-3 0  9998
2 54126  87.9163 306.8174 0001376 100.3018 259.8270 13.19723838175611
ONEWEB-0509             
1 54127U 22138Q   26159.14551823  .00000515  00000+0  12546-2 0  9997
2 54127  87.9172 306.7659 0001782 129.6230 230.5060 13.19716390175618
ONEWEB-0510             
1 54128U 22138R   26158.88969822  .00000065  00000+0  12843-3 0  9991
2 54128  87.9191 276.2891 0002443  99.5187 260.6222 13.20771294178051
ONEWEB-0511             
1 54129U 22138S   26159.14240312  .00000048  00000+0  87279-4 0  9995
2 54129  87.9171 306.7698 0001847  87.5133 272.6211 13.19725472175647
ONEWEB-0512             
1 54130U 22138T   26159.13449172  .00000008  00000+0 -12956-4 0  9998
2 54130  87.9161 306.7769 0001586  88.9442 271.1872 13.19724589175617
ONEWEB-0513             
1 54131U 22138U   26158.91647687  .00000017  00000+0  89416-5 0  9990
2 54131  87.9173 306.7657 0001511  65.0832 295.0458 13.20268139175491
ONEWEB-0514             
1 54132U 22138V   26159.15028713 -.00000142  00000+0 -38772-3 0  9999
2 54132  87.9171 306.7665 0001989  96.8628 263.2731 13.19724479175632
ONEWEB-0515             
1 54133U 22138W   26159.25499366  .00000081  00000+0  16708-3 0  9992
2 54133  87.9195 276.2100 0002516 117.1647 242.9743 13.20770311178121
ONEWEB-0516             
1 54134U 22138X   26159.12501196  .00000092  00000+0  19860-3 0  9998
2 54134  87.9162 306.7788 0001758 100.0282 260.1049 13.19724285175631
ONEWEB-0517             
1 54135U 22138Y   26158.95284424 -.00000083  00000+0 -23958-3 0  9996
2 54135  87.9166 306.8045 0002037  89.2556 270.8810 13.19724388175612
ONEWEB-0518             
1 54136U 22138Z   26159.12346764  .00000025  00000+0  30493-4 0  9990
2 54136  87.9162 306.7811 0001758 102.5234 257.6096 13.19726896175637
ONEWEB-0519             
1 54137U 22138AA  26159.14872583  .00000071  00000+0  14496-3 0  9991
2 54137  87.9173 306.7663 0001958  91.7822 268.3535 13.19725517175646
ONEWEB-0520             
1 54138U 22138AB  26158.95601203  .00000008  00000+0 -12708-4 0  9995
2 54138  87.9169 306.8047 0001569  95.6319 264.4993 13.19724599175601
ONEWEB-0521             
1 54139U 22138AC  26159.29244580  .00000124  00000+0  27681-3 0  9998
2 54139  87.9173 306.7266 0002018  92.3876 267.7488 13.19724597175592
